{
  "type": "FeatureCollection",
  "features": [
    {
      "type": "Feature",
      "properties": {
        "norad_id": 66477,
        "name": "STARLINK-35354",
        "group": "last-30-days",
        "lat": -29.00530787368646,
        "lon": -40.27261891472835,
        "alt_km": 417.54716828511846,
        "timestamp": "2025-12-07T05:38:08.684094+00:00",
        "meta_object_name": "STARLINK-35354",
        "meta_object_id": "2025-262X",
        "meta_epoch": "2025-12-06T14:00:01.999872",
        "meta_mean_motion": 15.50616737,
        "meta_eccentricity": 0.00011796,
        "meta_inclination": 43.0005,
        "meta_ra_of_asc_node": 107.0282,
        "meta_arg_of_pericenter": 275.1573,
        "meta_mean_anomaly": 269.3273,
        "meta_ephemeris_type": 0,
        "meta_classification_type": "U",
        "meta_norad_cat_id": 66477,
        "meta_element_set_no": 999,
        "meta_rev_at_epoch": 464,
        "meta_bstar": -0.0020828271,
        "meta_mean_motion_dot": -0.00120823,
        "meta_mean_motion_ddot": 0,
        "tle_line1": "1 66477U 25262X   25340.58335648 -.00120823  00000+0 -20828-2 0  9992",
        "tle_line2": "2 66477  43.0005 107.0282 0001179 275.1573 269.3273 15.50616737  4649"
      },
      "geometry": {
        "type": "Point",
        "coordinates": [
          -40.27261891472835,
          -29.00530787368646
        ]
      }
    },
    {
      "type": "Feature",
      "properties": {
        "norad_id": 66478,
        "name": "STARLINK-35283",
        "group": "last-30-days",
        "lat": -30.038130664830007,
        "lon": -38.43433811493983,
        "alt_km": 417.5213028479129,
        "timestamp": "2025-12-07T05:38:08.684104+00:00",
        "meta_object_name": "STARLINK-35283",
        "meta_object_id": "2025-262Y",
        "meta_epoch": "2025-12-06T14:00:01.999872",
        "meta_mean_motion": 15.50626952,
        "meta_eccentricity": 0.0001316,
        "meta_inclination": 43.0006,
        "meta_ra_of_asc_node": 107.0231,
        "meta_arg_of_pericenter": 270.3113,
        "meta_mean_anomaly": 276.0907,
        "meta_ephemeris_type": 0,
        "meta_classification_type": "U",
        "meta_norad_cat_id": 66478,
        "meta_element_set_no": 999,
        "meta_rev_at_epoch": 464,
        "meta_bstar": -0.0024326605,
        "meta_mean_motion_dot": -0.00140757,
        "meta_mean_motion_ddot": 0,
        "tle_line1": "1 66478U 25262Y   25340.58335648 -.00140757  00000+0 -24327-2 0  9999",
        "tle_line2": "2 66478  43.0006 107.0231 0001316 270.3113 276.0907 15.50626952  4644"
      },
      "geometry": {
        "type": "Point",
        "coordinates": [
          -38.43433811493983,
          -30.038130664830007
        ]
      }
    },
    {
      "type": "Feature",
      "properties": {
        "norad_id": 66479,
        "name": "STARLINK-35581",
        "group": "last-30-days",
        "lat": -27.943563465329177,
        "lon": -42.081888831012016,
        "alt_km": 417.47048511777666,
        "timestamp": "2025-12-07T05:38:08.684114+00:00",
        "meta_object_name": "STARLINK-35581",
        "meta_object_id": "2025-262Z",
        "meta_epoch": "2025-12-06T14:00:01.999872",
        "meta_mean_motion": 15.50624261,
        "meta_eccentricity": 0.0001135,
        "meta_inclination": 43.0006,
        "meta_ra_of_asc_node": 107.0328,
        "meta_arg_of_pericenter": 268.7461,
        "meta_mean_anomaly": 273.8227,
        "meta_ephemeris_type": 0,
        "meta_classification_type": "U",
        "meta_norad_cat_id": 66479,
        "meta_element_set_no": 999,
        "meta_rev_at_epoch": 464,
        "meta_bstar": -0.0023109307,
        "meta_mean_motion_dot": -0.00133833,
        "meta_mean_motion_ddot": 0,
        "tle_line1": "1 66479U 25262Z   25340.58335648 -.00133833  00000+0 -23109-2 0  9994",
        "tle_line2": "2 66479  43.0006 107.0328 0001135 268.7461 273.8227 15.50624261  4649"
      },
      "geometry": {
        "type": "Point",
        "coordinates": [
          -42.081888831012016,
          -27.943563465329177
        ]
      }
    },
    {
      "type": "Feature",
      "properties": {
        "norad_id": 66480,
        "name": "STARLINK-35670",
        "group": "last-30-days",
        "lat": -31.05748410103965,
        "lon": -36.5332240108714,
        "alt_km": 417.5176663891625,
        "timestamp": "2025-12-07T05:38:08.684126+00:00",
        "meta_object_name": "STARLINK-35670",
        "meta_object_id": "2025-262AA",
        "meta_epoch": "2025-12-06T14:00:01.999872",
        "meta_mean_motion": 15.50592684,
        "meta_eccentricity": 0.00012782,
        "meta_inclination": 43.0004,
        "meta_ra_of_asc_node": 107.0176,
        "meta_arg_of_pericenter": 274.2918,
        "meta_mean_anomaly": 274.0383,
        "meta_ephemeris_type": 0,
        "meta_classification_type": "U",
        "meta_norad_cat_id": 66480,
        "meta_element_set_no": 999,
        "meta_rev_at_epoch": 464,
        "meta_bstar": -0.0014620755,
        "meta_mean_motion_dot": -0.00085227,
        "meta_mean_motion_ddot": 0,
        "tle_line1": "1 66480U 25262AA  25340.58335648 -.00085227  00000+0 -14621-2 0  9998",
        "tle_line2": "2 66480  43.0004 107.0176 0001278 274.2918 274.0383 15.50592684  4646"
      },
      "geometry": {
        "type": "Point",
        "coordinates": [
          -36.5332240108714,
          -31.05748410103965
        ]
      }
    },
    {
      "type": "Feature",
      "properties": {
        "norad_id": 66481,
        "name": "STARLINK-35698",
        "group": "last-30-days",
        "lat": -32.032693995439125,
        "lon": -34.622490557163026,
        "alt_km": 417.64956769327364,
        "timestamp": "2025-12-07T05:38:08.684139+00:00",
        "meta_object_name": "STARLINK-35698",
        "meta_object_id": "2025-262AB",
        "meta_epoch": "2025-12-06T14:00:01.999872",
        "meta_mean_motion": 15.50626673,
        "meta_eccentricity": 0.0001215,
        "meta_inclination": 43.0006,
        "meta_ra_of_asc_node": 107.0129,
        "meta_arg_of_pericenter": 269.3378,
        "meta_mean_anomaly": 280.9049,
        "meta_ephemeris_type": 0,
        "meta_classification_type": "U",
        "meta_norad_cat_id": 66481,
        "meta_element_set_no": 999,
        "meta_rev_at_epoch": 464,
        "meta_bstar": -0.0024693128,
        "meta_mean_motion_dot": -0.00142832,
        "meta_mean_motion_ddot": 0,
        "tle_line1": "1 66481U 25262AB  25340.58335648 -.00142832  00000+0 -24693-2 0  9995",
        "tle_line2": "2 66481  43.0006 107.0129 0001215 269.3378 280.9049 15.50626673  4644"
      },
      "geometry": {
        "type": "Point",
        "coordinates": [
          -34.622490557163026,
          -32.032693995439125
        ]
      }
    },
    {
      "type": "Feature",
      "properties": {
        "norad_id": 66482,
        "name": "STARLINK-35648",
        "group": "last-30-days",
        "lat": -32.984272359023684,
        "lon": -32.658365604111296,
        "alt_km": 417.6885296530172,
        "timestamp": "2025-12-07T05:38:08.684149+00:00",
        "meta_object_name": "STARLINK-35648",
        "meta_object_id": "2025-262AC",
        "meta_epoch": "2025-12-06T14:00:01.999872",
        "meta_mean_motion": 15.50636044,
        "meta_eccentricity": 0.00012572,
        "meta_inclination": 43.0006,
        "meta_ra_of_asc_node": 107.0084,
        "meta_arg_of_pericenter": 269.8489,
        "meta_mean_anomaly": 282.3067,
        "meta_ephemeris_type": 0,
        "meta_classification_type": "U",
        "meta_norad_cat_id": 66482,
        "meta_element_set_no": 999,
        "meta_rev_at_epoch": 449,
        "meta_bstar": -0.0026811426,
        "meta_mean_motion_dot": -0.00154872,
        "meta_mean_motion_ddot": 0,
        "tle_line1": "1 66482U 25262AC  25340.58335648 -.00154872  00000+0 -26811-2 0  9997",
        "tle_line2": "2 66482  43.0006 107.0084 0001257 269.8489 282.3067 15.50636044  4491"
      },
      "geometry": {
        "type": "Point",
        "coordinates": [
          -32.658365604111296,
          -32.984272359023684
        ]
      }
    },
    {
      "type": "Feature",
      "properties": {
        "norad_id": 66483,
        "name": "STARLINK-35654",
        "group": "last-30-days",
        "lat": -33.91043901221792,
        "lon": -30.639959702621596,
        "alt_km": 417.7832389867617,
        "timestamp": "2025-12-07T05:38:08.684159+00:00",
        "meta_object_name": "STARLINK-35654",
        "meta_object_id": "2025-262AD",
        "meta_epoch": "2025-12-06T14:00:01.999872",
        "meta_mean_motion": 15.50618836,
        "meta_eccentricity": 0.00010761,
        "meta_inclination": 43.0007,
        "meta_ra_of_asc_node": 107.0024,
        "meta_arg_of_pericenter": 273.097,
        "meta_mean_anomaly": 280.9794,
        "meta_ephemeris_type": 0,
        "meta_classification_type": "U",
        "meta_norad_cat_id": 66483,
        "meta_element_set_no": 999,
        "meta_rev_at_epoch": 464,
        "meta_bstar": -0.00215535,
        "meta_mean_motion_dot": -0.00124961,
        "meta_mean_motion_ddot": 0,
        "tle_line1": "1 66483U 25262AD  25340.58335648 -.00124961  00000+0 -21553-2 0  9992",
        "tle_line2": "2 66483  43.0007 107.0024 0001076 273.0970 280.9794 15.50618836  4645"
      },
      "geometry": {
        "type": "Point",
        "coordinates": [
          -30.639959702621596,
          -33.91043901221792
        ]
      }
    }
  ]
}